IRIDIUM 144             
1 43249U 18030A   24200.56864871  .00000363  00000+0  12269-3 0  9991
2 43249  86.3962 222.3501 0002411  85.1568 274.9903 14.34217718330002
IRIDIUM 149             
1 43250U 18030B   24200.57499213  .00000291  00000+0  96798-4 0  9998
2 43250  86.3960 222.3223 0002259  86.3301 273.8153 14.34217998330028
IRIDIUM 157             
1 43251U 18030C   24200.59402018  .00000052  00000+0  11417-4 0  9998
2 43251  86.3961 222.3518 0001980  94.9011 265.2411 14.34217274330007
IRIDIUM 140             
1 43252U 18030D   24200.54328087  .00000154  00000+0  48098-4 0  9995
2 43252  86.3962 222.3877 0002628  88.5880 271.5617 14.34217840330052
IRIDIUM 145             
1 43253U 18030E   24200.60036294  .00000142  00000+0  43506-4 0  9995
2 43253  86.3961 222.3372 0002401  80.6041 279.5427 14.34217541329999
IRIDIUM 146             
1 43254U 18030F   24200.58133460  .00000063  00000+0  15501-4 0  9992
2 43254  86.3961 222.3600 0002340  86.2957 273.8507 14.34217435330006
IRIDIUM 148             
1 43255U 18030G   24200.54962213  .00000094  00000+0  26482-4 0  9999
2 43255  86.3962 222.4053 0002123  89.4983 270.6456 14.34217549330031
IRIDIUM 142             
1 43256U 18030H   24200.58767786  .00000065  00000+0  16259-4 0  9991
2 43256  86.3960 222.3043 0002331  83.3904 276.7557 14.34217532330003
